ONEWEB-0562             
1 55799U 23029D   26060.11808414  .00000017  00000+0  97579-5 0  9991
2 55799  87.9173 296.0369 0001275  49.6382 310.4862 13.20771762146881
ONEWEB-0563             
1 55800U 23029E   26060.11176945  .00000005  00000+0 -19047-4 0  9992
2 55800  87.9175 296.0688 0001455  90.2125 269.9174 13.20771662146879
ONEWEB-0564             
1 55801U 23029F   26060.10545848  .00000037  00000+0  58149-4 0  9994
2 55801  87.9174 296.0424 0001502  69.0865 291.0429 13.20771778146883
ONEWEB-0638             
1 55802U 23029G   26060.15358590  .00000122  00000+0  29327-3 0  9996
2 55802  87.8993 311.3142 0001126  68.3998 291.7252 13.14502633145202
ONEWEB-0639             
1 55803U 23029H   26060.14461198  .00000071  00000+0  14487-3 0  9999
2 55803  87.9240 326.4991 0001999 112.4981 247.6363 13.19726774144659
ONEWEB-0640             
1 55804U 23029J   26060.16308300 -.00000019  00000+0 -85003-4 0  9994
2 55804  87.8997 311.3026 0000947  92.6346 267.4892 13.14501146145226
ONEWEB-0641             
1 55805U 23029K   26060.13987491  .00000117  00000+0  25901-3 0  9993
2 55805  87.9245 326.4863 0001775  84.9789 275.1546 13.19725749144666
ONEWEB-0642             
1 55806U 23029L   26060.13513858  .00000063  00000+0  12489-3 0  9993
2 55806  87.9240 326.5024 0002122 102.8046 257.3324 13.19726013144655
ONEWEB-0643             
1 55807U 23029M   26060.13296226  .00000148  00000+0  36457-3 0  9996
2 55807  87.8993 311.2956 0002166  96.8489 263.2887 13.14501902145199
ONEWEB-0644             
1 55808U 23029N   26060.13040663  .00000070  00000+0  14203-3 0  9998
2 55808  87.9237 326.5100 0001959  88.3244 271.8113 13.19724757144653
ONEWEB-0645             
1 55809U 23029P   26060.15250443  .00000088  00000+0  18766-3 0  9997
2 55809  87.9237 326.4982 0001497  95.7291 264.4013 13.19724062144658
ONEWEB-0646             
1 55810U 23029Q   26060.16987920  .00000080  00000+0  16868-3 0  9990
2 55810  87.9239 326.4944 0001833  87.5554 272.5789 13.19727093144641
ONEWEB-0648             
1 55811U 23029R   26060.10123818 -.00000165  00000+0 -48077-3 0  9996
2 55811  87.9004 311.2665 0001641 114.4994 245.6307 13.14501280145190
ONEWEB-0649             
1 55812U 23029S   26060.11932876  .00000045  00000+0  79032-4 0  9991
2 55812  87.9239 326.5016 0001613  89.8490 270.2828 13.19724909144679
ONEWEB-0650             
1 55813U 23029T   26060.11459902  .00000069  00000+0  14066-3 0  9997
2 55813  87.9236 326.5056 0001830  94.6166 265.5176 13.19726868144642
ONEWEB-0652             
1 55814U 23029U   26060.15833170  .00000128  00000+0  31160-3 0  9995
2 55814  87.8994 311.2712 0001689  74.1711 285.9605 13.14501798145174
ONEWEB-0653             
1 55815U 23029V   26060.14247446  .00000295  00000+0  76063-3 0  9996
2 55815  87.8995 311.2645 0001506  76.0418 284.0879 13.14501711145206
