[{"OBJECT_NAME":"ONEWEB-0562","OBJECT_ID":"2023-029D","EPOCH":"2026-03-01T02:50:02.469696","MEAN_MOTION":13.20771762,"ECCENTRICITY":0.0001275,"INCLINATION":87.9173,"RA_OF_ASC_NODE":296.0369,"ARG_OF_PERICENTER":49.6382,"MEAN_ANOMALY":310.4862,"EPHEMERIS_TYPE":0,"CLASSIFICATION_TYPE":"U","NORAD_CAT_ID":55799,"ELEMENT_SET_NO":999,"REV_AT_EPOCH":14688,"BSTAR":9.7579e-6,"MEAN_MOTION_DOT":1.7e-7,"MEAN_MOTION_DDOT":0},{"OBJECT_NAME":"ONEWEB-0563","OBJECT_ID":"2023-029E","EPOCH":"2026-03-01T02:40:56.880480","MEAN_MOTION":13.20771662,"ECCENTRICITY":0.0001455,"INCLINATION":87.9175,"RA_OF_ASC_NODE":296.0688,"ARG_OF_PERICENTER":90.2125,"MEAN_ANOMALY":269.9174,"EPHEMERIS_TYPE":0,"CLASSIFICATION_TYPE":"U","NORAD_CAT_ID":55800,"ELEMENT_SET_NO":999,"REV_AT_EPOCH":14687,"BSTAR":-1.9047e-5,"MEAN_MOTION_DOT":5.0e-8,"MEAN_MOTION_DDOT":0},{"OBJECT_NAME":"ONEWEB-0564","OBJECT_ID":"2023-029F","EPOCH":"2026-03-01T02:31:51.612672","MEAN_MOTION":13.20771778,"ECCENTRICITY":0.0001502,"INCLINATION":87.9174,"RA_OF_ASC_NODE":296.0424,"ARG_OF_PERICENTER":69.0865,"MEAN_ANOMALY":291.0429,"EPHEMERIS_TYPE":0,"CLASSIFICATION_TYPE":"U","NORAD_CAT_ID":55801,"ELEMENT_SET_NO":999,"REV_AT_EPOCH":14688,"BSTAR":5.8149e-5,"MEAN_MOTION_DOT":3.7e-7,"MEAN_MOTION_DDOT":0},{"OBJECT_NAME":"ONEWEB-0638","OBJECT_ID":"2023-029G","EPOCH":"2026-03-01T03:41:09.821760","MEAN_MOTION":13.14502633,"ECCENTRICITY":0.0001126,"INCLINATION":87.8993,"RA_OF_ASC_NODE":311.3142,"ARG_OF_PERICENTER":68.3998,"MEAN_ANOMALY":291.7252,"EPHEMERIS_TYPE":0,"CLASSIFICATION_TYPE":"U","NORAD_CAT_ID":55802,"ELEMENT_SET_NO":999,"REV_AT_EPOCH":14520,"BSTAR":0.00029327,"MEAN_MOTION_DOT":1.22e-6,"MEAN_MOTION_DDOT":0},{"OBJECT_NAME":"ONEWEB-0639","OBJECT_ID":"2023-029H","EPOCH":"2026-03-01T03:28:14.475072","MEAN_MOTION":13.19726774,"ECCENTRICITY":0.0001999,"INCLINATION":87.924,"RA_OF_ASC_NODE":326.4991,"ARG_OF_PERICENTER":112.4981,"MEAN_ANOMALY":247.6363,"EPHEMERIS_TYPE":0,"CLASSIFICATION_TYPE":"U","NORAD_CAT_ID":55803,"ELEMENT_SET_NO":999,"REV_AT_EPOCH":14465,"BSTAR":0.00014487,"MEAN_MOTION_DOT":7.1e-7,"MEAN_MOTION_DDOT":0},{"OBJECT_NAME":"ONEWEB-0640","OBJECT_ID":"2023-029J","EPOCH":"2026-03-01T03:54:50.371200","MEAN_MOTION":13.14501146,"ECCENTRICITY":9.47e-5,"INCLINATION":87.8997,"RA_OF_ASC_NODE":311.3026,"ARG_OF_PERICENTER":92.6346,"MEAN_ANOMALY":267.4892,"EPHEMERIS_TYPE":0,"CLASSIFICATION_TYPE":"U","NORAD_CAT_ID":55804,"ELEMENT_SET_NO":999,"REV_AT_EPOCH":14522,"BSTAR":-8.5003e-5,"MEAN_MOTION_DOT":-1.9e-7,"MEAN_MOTION_DDOT":0},{"OBJECT_NAME":"ONEWEB-0641","OBJECT_ID":"2023-029K","EPOCH":"2026-03-01T03:21:25.192224","MEAN_MOTION":13.19725749,"ECCENTRICITY":0.0001775,"INCLINATION":87.9245,"RA_OF_ASC_NODE":326.4863,"ARG_OF_PERICENTER":84.9789,"MEAN_ANOMALY":275.1546,"EPHEMERIS_TYPE":0,"CLASSIFICATION_TYPE":"U","NORAD_CAT_ID":55805,"ELEMENT_SET_NO":999,"REV_AT_EPOCH":14466,"BSTAR":0.00025901,"MEAN_MOTION_DOT":1.17e-6,"MEAN_MOTION_DDOT":0},{"OBJECT_NAME":"ONEWEB-0642","OBJECT_ID":"2023-029L","EPOCH":"2026-03-01T03:14:35.973312","MEAN_MOTION":13.19726013,"ECCENTRICITY":0.0002122,"INCLINATION":87.924,"RA_OF_ASC_NODE":326.5024,"ARG_OF_PERICENTER":102.8046,"MEAN_ANOMALY":257.3324,"EPHEMERIS_TYPE":0,"CLASSIFICATION_TYPE":"U","NORAD_CAT_ID":55806,"ELEMENT_SET_NO":999,"REV_AT_EPOCH":14465,"BSTAR":0.00012489,"MEAN_MOTION_DOT":6.3e-7,"MEAN_MOTION_DDOT":0},{"OBJECT_NAME":"ONEWEB-0643","OBJECT_ID":"2023-029M","EPOCH":"2026-03-01T03:11:27.939264","MEAN_MOTION":13.14501902,"ECCENTRICITY":0.0002166,"INCLINATION":87.8993,"RA_OF_ASC_NODE":311.2956,"ARG_OF_PERICENTER":96.8489,"MEAN_ANOMALY":263.2887,"EPHEMERIS_TYPE":0,"CLASSIFICATION_TYPE":"U","NORAD_CAT_ID":55807,"ELEMENT_SET_NO":999,"REV_AT_EPOCH":14519,"BSTAR":0.00036457,"MEAN_MOTION_DOT":1.48e-6,"MEAN_MOTION_DDOT":0},{"OBJECT_NAME":"ONEWEB-0644","OBJECT_ID":"2023-029N","EPOCH":"2026-03-01T03:07:47.132832","MEAN_MOTION":13.19724757,"ECCENTRICITY":0.0001959,"INCLINATION":87.9237,"RA_OF_ASC_NODE":326.51,"ARG_OF_PERICENTER":88.3244,"MEAN_ANOMALY":271.8113,"EPHEMERIS_TYPE":0,"CLASSIFICATION_TYPE":"U","NORAD_CAT_ID":55808,"ELEMENT_SET_NO":999,"REV_AT_EPOCH":14465,"BSTAR":0.00014203,"MEAN_MOTION_DOT":7.0e-7,"MEAN_MOTION_DDOT":0},{"OBJECT_NAME":"ONEWEB-0645","OBJECT_ID":"2023-029P","EPOCH":"2026-03-01T03:39:36.382752","MEAN_MOTION":13.19724062,"ECCENTRICITY":0.0001497,"INCLINATION":87.9237,"RA_OF_ASC_NODE":326.4982,"ARG_OF_PERICENTER":95.7291,"MEAN_ANOMALY":264.4013,"EPHEMERIS_TYPE":0,"CLASSIFICATION_TYPE":"U","NORAD_CAT_ID":55809,"ELEMENT_SET_NO":999,"REV_AT_EPOCH":14465,"BSTAR":0.00018766,"MEAN_MOTION_DOT":8.8e-7,"MEAN_MOTION_DDOT":0},{"OBJECT_NAME":"ONEWEB-0646","OBJECT_ID":"2023-029Q","EPOCH":"2026-03-01T04:04:37.562880","MEAN_MOTION":13.19727093,"ECCENTRICITY":0.0001833,"INCLINATION":87.9239,"RA_OF_ASC_NODE":326.4944,"ARG_OF_PERICENTER":87.5554,"MEAN_ANOMALY":272.5789,"EPHEMERIS_TYPE":0,"CLASSIFICATION_TYPE":"U","NORAD_CAT_ID":55810,"ELEMENT_SET_NO":999,"REV_AT_EPOCH":14464,"BSTAR":0.00016868,"MEAN_MOTION_DOT":8.0e-7,"MEAN_MOTION_DDOT":0},{"OBJECT_NAME":"ONEWEB-0648","OBJECT_ID":"2023-029R","EPOCH":"2026-03-01T02:25:46.978752","MEAN_MOTION":13.1450128,"ECCENTRICITY":0.0001641,"INCLINATION":87.9004,"RA_OF_ASC_NODE":311.2665,"ARG_OF_PERICENTER":114.4994,"MEAN_ANOMALY":245.6307,"EPHEMERIS_TYPE":0,"CLASSIFICATION_TYPE":"U","NORAD_CAT_ID":55811,"ELEMENT_SET_NO":999,"REV_AT_EPOCH":14519,"BSTAR":-0.00048077,"MEAN_MOTION_DOT":-1.65e-6,"MEAN_MOTION_DDOT":0},{"OBJECT_NAME":"ONEWEB-0649","OBJECT_ID":"2023-029S","EPOCH":"2026-03-01T02:51:50.004864","MEAN_MOTION":13.19724909,"ECCENTRICITY":0.0001613,"INCLINATION":87.9239,"RA_OF_ASC_NODE":326.5016,"ARG_OF_PERICENTER":89.849,"MEAN_ANOMALY":270.2828,"EPHEMERIS_TYPE":0,"CLASSIFICATION_TYPE":"U","NORAD_CAT_ID":55812,"ELEMENT_SET_NO":999,"REV_AT_EPOCH":14467,"BSTAR":7.9032e-5,"MEAN_MOTION_DOT":4.5e-7,"MEAN_MOTION_DDOT":0},{"OBJECT_NAME":"ONEWEB-0650","OBJECT_ID":"2023-029T","EPOCH":"2026-03-01T02:45:01.355328","MEAN_MOTION":13.19726868,"ECCENTRICITY":0.000183,"INCLINATION":87.9236,"RA_OF_ASC_NODE":326.5056,"ARG_OF_PERICENTER":94.6166,"MEAN_ANOMALY":265.5176,"EPHEMERIS_TYPE":0,"CLASSIFICATION_TYPE":"U","NORAD_CAT_ID":55813,"ELEMENT_SET_NO":999,"REV_AT_EPOCH":14464,"BSTAR":0.00014066,"MEAN_MOTION_DOT":6.9e-7,"MEAN_MOTION_DDOT":0},{"OBJECT_NAME":"ONEWEB-0652","OBJECT_ID":"2023-029U","EPOCH":"2026-03-01T03:47:59.858880","MEAN_MOTION":13.14501798,"ECCENTRICITY":0.0001689,"INCLINATION":87.8994,"RA_OF_ASC_NODE":311.2712,"ARG_OF_PERICENTER":74.1711,"MEAN_ANOMALY":285.9605,"EPHEMERIS_TYPE":0,"CLASSIFICATION_TYPE":"U","NORAD_CAT_ID":55814,"ELEMENT_SET_NO":999,"REV_AT_EPOCH":14517,"BSTAR":0.0003116,"MEAN_MOTION_DOT":1.28e-6,"MEAN_MOTION_DDOT":0},{"OBJECT_NAME":"ONEWEB-0653","OBJECT_ID":"2023-029V","EPOCH":"2026-03-01T03:25:09.793344","MEAN_MOTION":13.14501711,"ECCENTRICITY":0.0001506,"INCLINATION":87.8995,"RA_OF_ASC_NODE":311.2645,"ARG_OF_PERICENTER":76.0418,"MEAN_ANOMALY":284.0879,"EPHEMERIS_TYPE":0,"CLASSIFICATION_TYPE":"U","NORAD_CAT_ID":55815,"ELEMENT_SET_NO":999,"REV_AT_EPOCH":14520,"BSTAR":0.00076063,"MEAN_MOTION_DOT":2.95e-6,"MEAN_MOTION_DDOT":0}]
